HISPASAT 1B             
1 22723U 93048A   26094.92884452 -.00000060  00000+0  00000+0 0  9998
2 22723  13.6654  13.6355 0008641 347.4285 248.6859  0.99715851119107
INSAT-2B                
1 22724U 93048B   26094.96039144 -.00000090  00000+0  00000+0 0  9996
2 22724  14.4295   3.1486 0015736 230.4219 304.1167  0.99986758119845
IABS R/B                
1 22738U 93046C   26092.31043343 -.00000107  00000+0  00000+0 0  9991
2 22738  12.5349 337.4476 0083062 139.5108 221.0568  1.02138192 25556
SL-6 R/B(2)             
1 22744U 93051D   26094.24501333  .00000687  00000+0  00000+0 0  9998
2 22744  68.2244 302.3071 6243702  73.3424 343.3350  2.05606826243713
UFO 2 (USA 95)          
1 22787U 93056A   26094.89498661  .00000126  00000+0  00000+0 0  9998
2 22787  11.8672   3.9494 0009033 294.0669 246.1287  1.00268061117815
ACTS                    
1 22796U 93058B   26095.22497943 -.00000108  00000+0  00000+0 0  9991
2 22796  14.5774 356.1358 0052882  77.8563  94.6052  1.00272019126173
TOS R/B                 
1 22797U 93058D   26095.15216831  .00000120  00000+0  46334-3 0  9996
2 22797  15.1473  90.0720 7351665  40.6037 355.5786  2.13420345246837
RADUGA 30               
1 22836U 93062A   26095.60332186 -.00000166  00000+0  00000+0 0  9994
2 22836  14.0490 347.6850 0005663 325.5246 178.9931  1.00273733 45273
SL-12 R/B(2)            
1 22839U 93062D   26094.95978477 -.00000059  00000+0  00000+0 0  9994
2 22839  13.9882 347.4193 0008509  84.8078 102.3785  1.00284334118129
GORIZONT 28             
1 22880U 93069A   26095.49628113 -.00000192  00000+0  00000+0 0  9994
2 22880  14.1471 348.5722 0030064 171.9046  18.6850  0.99659663118407
SL-12 R/B(2)            
1 22883U 93069D   26095.37753113  .00000105  00000+0  00000+0 0  9996
2 22883  13.8956 347.2355 0004159  37.2812 148.2679  1.00481831118337
GORIZONT 29             
1 22907U 93072A   26094.84458843 -.00000331  00000+0  00000+0 0  9992
2 22907  14.0219 347.8749 0012027 357.8710 257.2877  1.00124432118436
SOLIDARIDAD 1           
1 22911U 93073A   26094.49410540 -.00000109  00000+0  00000+0 0  9994
2 22911  14.3592   2.9408 0007640 270.8595 350.8442  1.00279777117125
IABS R/B                
1 22916U 93074B   26094.96613001 -.00000168  00000+0  00000+0 0  9994
2 22916  13.8399 342.5699 0060410 100.7358 259.9030  1.00005876 25178
DELTA 2 R/B(2)          
1 22923U 93076C   26094.98058486 -.00000017  00000+0  18662-2 0  9995
2 22923  23.2080 288.9458 7112064 204.3804  77.1168  2.24125269264736
TELSTAR 401             
1 22927U 93077A   26095.22393943 -.00000077  00000+0  00000+0 0  9998
2 22927  14.4725 351.4226 0004970 145.9681  25.7552  1.00282424117844
MOLNIYA 1-87            
1 22949U 93079A   26085.32628567  .00000992  00000+0  00000+0 0  9992
2 22949  64.9152 292.1047 6820064 270.3500  18.2464  2.02846738102887
