[{"OBJECT_NAME":"HISPASAT 1B","OBJECT_ID":"1993-048A","EPOCH":"2026-04-04T22:17:32.166528","MEAN_MOTION":0.99715851,"ECCENTRICITY":0.00086416,"INCLINATION":13.6654,"RA_OF_ASC_NODE":13.6355,"ARG_OF_PERICENTER":347.4285,"MEAN_ANOMALY":248.6859,"EPHEMERIS_TYPE":0,"CLASSIFICATION_TYPE":"U","NORAD_CAT_ID":22723,"ELEMENT_SET_NO":999,"REV_AT_EPOCH":11910,"BSTAR":0,"MEAN_MOTION_DOT":-6.0e-7,"MEAN_MOTION_DDOT":0},{"OBJECT_NAME":"INSAT-2B","OBJECT_ID":"1993-048B","EPOCH":"2026-04-04T23:02:57.820416","MEAN_MOTION":0.99986758,"ECCENTRICITY":0.00157365,"INCLINATION":14.4295,"RA_OF_ASC_NODE":3.1486,"ARG_OF_PERICENTER":230.4219,"MEAN_ANOMALY":304.1167,"EPHEMERIS_TYPE":0,"CLASSIFICATION_TYPE":"U","NORAD_CAT_ID":22724,"ELEMENT_SET_NO":999,"REV_AT_EPOCH":11984,"BSTAR":0,"MEAN_MOTION_DOT":-9.0e-7,"MEAN_MOTION_DDOT":0},{"OBJECT_NAME":"IABS R/B","OBJECT_ID":"1993-046C","EPOCH":"2026-04-02T07:27:01.448352","MEAN_MOTION":1.02138192,"ECCENTRICITY":0.00830628,"INCLINATION":12.5349,"RA_OF_ASC_NODE":337.4476,"ARG_OF_PERICENTER":139.5108,"MEAN_ANOMALY":221.0568,"EPHEMERIS_TYPE":0,"CLASSIFICATION_TYPE":"U","NORAD_CAT_ID":22738,"ELEMENT_SET_NO":999,"REV_AT_EPOCH":2555,"BSTAR":0,"MEAN_MOTION_DOT":-1.07e-6,"MEAN_MOTION_DDOT":0},{"OBJECT_NAME":"SL-6 R/B(2)","OBJECT_ID":"1993-051D","EPOCH":"2026-04-04T05:52:49.151712","MEAN_MOTION":2.05606826,"ECCENTRICITY":0.62437026,"INCLINATION":68.2244,"RA_OF_ASC_NODE":302.3071,"ARG_OF_PERICENTER":73.3424,"MEAN_ANOMALY":343.335,"EPHEMERIS_TYPE":0,"CLASSIFICATION_TYPE":"U","NORAD_CAT_ID":22744,"ELEMENT_SET_NO":999,"REV_AT_EPOCH":24371,"BSTAR":0,"MEAN_MOTION_DOT":6.87e-6,"MEAN_MOTION_DDOT":0},{"OBJECT_NAME":"UFO 2 (USA 95)","OBJECT_ID":"1993-056A","EPOCH":"2026-04-04T21:28:46.843104","MEAN_MOTION":1.00268061,"ECCENTRICITY":0.00090335,"INCLINATION":11.8672,"RA_OF_ASC_NODE":3.9494,"ARG_OF_PERICENTER":294.0669,"MEAN_ANOMALY":246.1287,"EPHEMERIS_TYPE":0,"CLASSIFICATION_TYPE":"U","NORAD_CAT_ID":22787,"ELEMENT_SET_NO":999,"REV_AT_EPOCH":11781,"BSTAR":0,"MEAN_MOTION_DOT":1.26e-6,"MEAN_MOTION_DDOT":0},{"OBJECT_NAME":"ACTS","OBJECT_ID":"1993-058B","EPOCH":"2026-04-05T05:23:58.222752","MEAN_MOTION":1.00272019,"ECCENTRICITY":0.0052882,"INCLINATION":14.5774,"RA_OF_ASC_NODE":356.1358,"ARG_OF_PERICENTER":77.8563,"MEAN_ANOMALY":94.6052,"EPHEMERIS_TYPE":0,"CLASSIFICATION_TYPE":"U","NORAD_CAT_ID":22796,"ELEMENT_SET_NO":999,"REV_AT_EPOCH":12617,"BSTAR":0,"MEAN_MOTION_DOT":-1.08e-6,"MEAN_MOTION_DDOT":0},{"OBJECT_NAME":"TOS R/B","OBJECT_ID":"1993-058D","EPOCH":"2026-04-05T03:39:07.341984","MEAN_MOTION":2.13420345,"ECCENTRICITY":0.7351665,"INCLINATION":15.1473,"RA_OF_ASC_NODE":90.072,"ARG_OF_PERICENTER":40.6037,"MEAN_ANOMALY":355.5786,"EPHEMERIS_TYPE":0,"CLASSIFICATION_TYPE":"U","NORAD_CAT_ID":22797,"ELEMENT_SET_NO":999,"REV_AT_EPOCH":24683,"BSTAR":0.00046334,"MEAN_MOTION_DOT":1.2e-6,"MEAN_MOTION_DDOT":0},{"OBJECT_NAME":"RADUGA 30","OBJECT_ID":"1993-062A","EPOCH":"2026-04-05T14:28:47.008704","MEAN_MOTION":1.00273733,"ECCENTRICITY":0.00056632,"INCLINATION":14.049,"RA_OF_ASC_NODE":347.685,"ARG_OF_PERICENTER":325.5246,"MEAN_ANOMALY":178.9931,"EPHEMERIS_TYPE":0,"CLASSIFICATION_TYPE":"U","NORAD_CAT_ID":22836,"ELEMENT_SET_NO":999,"REV_AT_EPOCH":4527,"BSTAR":0,"MEAN_MOTION_DOT":-1.66e-6,"MEAN_MOTION_DDOT":0},{"OBJECT_NAME":"SL-12 R/B(2)","OBJECT_ID":"1993-062D","EPOCH":"2026-04-04T23:02:05.404128","MEAN_MOTION":1.00284334,"ECCENTRICITY":0.00085098,"INCLINATION":13.9882,"RA_OF_ASC_NODE":347.4193,"ARG_OF_PERICENTER":84.8078,"MEAN_ANOMALY":102.3785,"EPHEMERIS_TYPE":0,"CLASSIFICATION_TYPE":"U","NORAD_CAT_ID":22839,"ELEMENT_SET_NO":999,"REV_AT_EPOCH":11812,"BSTAR":0,"MEAN_MOTION_DOT":-5.9e-7,"MEAN_MOTION_DDOT":0},{"OBJECT_NAME":"GORIZONT 28","OBJECT_ID":"1993-069A","EPOCH":"2026-04-05T11:54:38.689632","MEAN_MOTION":0.99659663,"ECCENTRICITY":0.00300648,"INCLINATION":14.1471,"RA_OF_ASC_NODE":348.5722,"ARG_OF_PERICENTER":171.9046,"MEAN_ANOMALY":18.685,"EPHEMERIS_TYPE":0,"CLASSIFICATION_TYPE":"U","NORAD_CAT_ID":22880,"ELEMENT_SET_NO":999,"REV_AT_EPOCH":11840,"BSTAR":0,"MEAN_MOTION_DOT":-1.92e-6,"MEAN_MOTION_DDOT":0},{"OBJECT_NAME":"SL-12 R/B(2)","OBJECT_ID":"1993-069D","EPOCH":"2026-04-05T09:03:38.689632","MEAN_MOTION":1.00481831,"ECCENTRICITY":0.00041599,"INCLINATION":13.8956,"RA_OF_ASC_NODE":347.2355,"ARG_OF_PERICENTER":37.2812,"MEAN_ANOMALY":148.2679,"EPHEMERIS_TYPE":0,"CLASSIFICATION_TYPE":"U","NORAD_CAT_ID":22883,"ELEMENT_SET_NO":999,"REV_AT_EPOCH":11833,"BSTAR":0,"MEAN_MOTION_DOT":1.05e-6,"MEAN_MOTION_DDOT":0},{"OBJECT_NAME":"GORIZONT 29","OBJECT_ID":"1993-072A","EPOCH":"2026-04-04T20:16:12.440352","MEAN_MOTION":1.00124432,"ECCENTRICITY":0.00120275,"INCLINATION":14.0219,"RA_OF_ASC_NODE":347.8749,"ARG_OF_PERICENTER":357.871,"MEAN_ANOMALY":257.2877,"EPHEMERIS_TYPE":0,"CLASSIFICATION_TYPE":"U","NORAD_CAT_ID":22907,"ELEMENT_SET_NO":999,"REV_AT_EPOCH":11843,"BSTAR":0,"MEAN_MOTION_DOT":-3.31e-6,"MEAN_MOTION_DDOT":0},{"OBJECT_NAME":"SOLIDARIDAD 1","OBJECT_ID":"1993-073A","EPOCH":"2026-04-04T11:51:30.706560","MEAN_MOTION":1.00279777,"ECCENTRICITY":0.00076408,"INCLINATION":14.3592,"RA_OF_ASC_NODE":2.9408,"ARG_OF_PERICENTER":270.8595,"MEAN_ANOMALY":350.8442,"EPHEMERIS_TYPE":0,"CLASSIFICATION_TYPE":"U","NORAD_CAT_ID":22911,"ELEMENT_SET_NO":999,"REV_AT_EPOCH":11712,"BSTAR":0,"MEAN_MOTION_DOT":-1.09e-6,"MEAN_MOTION_DDOT":0},{"OBJECT_NAME":"IABS R/B","OBJECT_ID":"1993-074B","EPOCH":"2026-04-04T23:11:13.632864","MEAN_MOTION":1.00005876,"ECCENTRICITY":0.00604104,"INCLINATION":13.8399,"RA_OF_ASC_NODE":342.5699,"ARG_OF_PERICENTER":100.7358,"MEAN_ANOMALY":259.903,"EPHEMERIS_TYPE":0,"CLASSIFICATION_TYPE":"U","NORAD_CAT_ID":22916,"ELEMENT_SET_NO":999,"REV_AT_EPOCH":2517,"BSTAR":0,"MEAN_MOTION_DOT":-1.68e-6,"MEAN_MOTION_DDOT":0},{"OBJECT_NAME":"DELTA 2 R/B(2)","OBJECT_ID":"1993-076C","EPOCH":"2026-04-04T23:32:02.531904","MEAN_MOTION":2.24125269,"ECCENTRICITY":0.71120648,"INCLINATION":23.208,"RA_OF_ASC_NODE":288.9458,"ARG_OF_PERICENTER":204.3804,"MEAN_ANOMALY":77.1168,"EPHEMERIS_TYPE":0,"CLASSIFICATION_TYPE":"U","NORAD_CAT_ID":22923,"ELEMENT_SET_NO":999,"REV_AT_EPOCH":26473,"BSTAR":0.0018662335,"MEAN_MOTION_DOT":-1.7e-7,"MEAN_MOTION_DDOT":0},{"OBJECT_NAME":"TELSTAR 401","OBJECT_ID":"1993-077A","EPOCH":"2026-04-05T05:22:28.366752","MEAN_MOTION":1.00282424,"ECCENTRICITY":0.000497,"INCLINATION":14.4725,"RA_OF_ASC_NODE":351.4226,"ARG_OF_PERICENTER":145.9681,"MEAN_ANOMALY":25.7552,"EPHEMERIS_TYPE":0,"CLASSIFICATION_TYPE":"U","NORAD_CAT_ID":22927,"ELEMENT_SET_NO":999,"REV_AT_EPOCH":11784,"BSTAR":0,"MEAN_MOTION_DOT":-7.7e-7,"MEAN_MOTION_DDOT":0},{"OBJECT_NAME":"MOLNIYA 1-87","OBJECT_ID":"1993-079A","EPOCH":"2026-03-26T07:49:51.081888","MEAN_MOTION":2.02846738,"ECCENTRICITY":0.68200648,"INCLINATION":64.9152,"RA_OF_ASC_NODE":292.1047,"ARG_OF_PERICENTER":270.35,"MEAN_ANOMALY":18.2464,"EPHEMERIS_TYPE":0,"CLASSIFICATION_TYPE":"U","NORAD_CAT_ID":22949,"ELEMENT_SET_NO":999,"REV_AT_EPOCH":10288,"BSTAR":0,"MEAN_MOTION_DOT":9.92e-6,"MEAN_MOTION_DDOT":0}]
